[{"OBJECT_NAME":"STARLINK-32507","OBJECT_ID":"2024-222U","EPOCH":"2025-09-10T05:19:51.668256","MEAN_MOTION":15.27602715,"ECCENTRICITY":0.00015244,"INCLINATION":43.0038,"RA_OF_ASC_NODE":74.9518,"ARG_OF_PERICENTER":267.0535,"MEAN_ANOMALY":93.0142,"EPHEMERIS_TYPE":0,"CLASSIFICATION_TYPE":"U","NORAD_CAT_ID":62132,"ELEMENT_SET_NO":999,"REV_AT_EPOCH":4500,"BSTAR":0.0013114516,"MEAN_MOTION_DOT":0.00036028,"MEAN_MOTION_DDOT":0},{"OBJECT_NAME":"STARLINK-32245","OBJECT_ID":"2024-222V","EPOCH":"2025-09-09T22:20:53.540736","MEAN_MOTION":15.27610597,"ECCENTRICITY":0.00017692,"INCLINATION":43.0005,"RA_OF_ASC_NODE":77.0636,"ARG_OF_PERICENTER":279.1136,"MEAN_ANOMALY":80.9516,"EPHEMERIS_TYPE":0,"CLASSIFICATION_TYPE":"U","NORAD_CAT_ID":62133,"ELEMENT_SET_NO":999,"REV_AT_EPOCH":4526,"BSTAR":0.00065884883,"MEAN_MOTION_DOT":0.00017929,"MEAN_MOTION_DDOT":0},{"OBJECT_NAME":"STARLINK-32546","OBJECT_ID":"2024-222W","EPOCH":"2025-09-09T19:26:14.251488","MEAN_MOTION":15.27603793,"ECCENTRICITY":0.00017796,"INCLINATION":43.0017,"RA_OF_ASC_NODE":74.4185,"ARG_OF_PERICENTER":278.804,"MEAN_ANOMALY":81.261,"EPHEMERIS_TYPE":0,"CLASSIFICATION_TYPE":"U","NORAD_CAT_ID":62134,"ELEMENT_SET_NO":999,"REV_AT_EPOCH":4501,"BSTAR":0.0010176904,"MEAN_MOTION_DOT":0.00027869,"MEAN_MOTION_DDOT":0},{"OBJECT_NAME":"STARLINK-32545","OBJECT_ID":"2024-222X","EPOCH":"2025-09-10T05:14:31.124256","MEAN_MOTION":15.27603236,"ECCENTRICITY":0.00019546,"INCLINATION":42.9998,"RA_OF_ASC_NODE":75.7823,"ARG_OF_PERICENTER":265.2513,"MEAN_ANOMALY":94.8116,"EPHEMERIS_TYPE":0,"CLASSIFICATION_TYPE":"U","NORAD_CAT_ID":62135,"ELEMENT_SET_NO":999,"REV_AT_EPOCH":4519,"BSTAR":0.0010329112,"MEAN_MOTION_DOT":0.00028291,"MEAN_MOTION_DDOT":0},{"OBJECT_NAME":"STARLINK-32554","OBJECT_ID":"2024-222Y","EPOCH":"2025-09-09T18:57:46.695456","MEAN_MOTION":15.27610933,"ECCENTRICITY":0.00024924,"INCLINATION":42.9998,"RA_OF_ASC_NODE":77.7223,"ARG_OF_PERICENTER":274.2119,"MEAN_ANOMALY":85.8448,"EPHEMERIS_TYPE":0,"CLASSIFICATION_TYPE":"U","NORAD_CAT_ID":62136,"ELEMENT_SET_NO":999,"REV_AT_EPOCH":4513,"BSTAR":0.001123457,"MEAN_MOTION_DOT":0.00030813,"MEAN_MOTION_DDOT":0},{"OBJECT_NAME":"STARLINK-32570","OBJECT_ID":"2024-222Z","EPOCH":"2025-09-09T19:07:01.899264","MEAN_MOTION":15.27609309,"ECCENTRICITY":5.356e-5,"INCLINATION":42.9982,"RA_OF_ASC_NODE":77.7708,"ARG_OF_PERICENTER":246.3115,"MEAN_ANOMALY":113.768,"EPHEMERIS_TYPE":0,"CLASSIFICATION_TYPE":"U","NORAD_CAT_ID":62137,"ELEMENT_SET_NO":999,"REV_AT_EPOCH":4523,"BSTAR":0.0010901541,"MEAN_MOTION_DOT":0.00029885,"MEAN_MOTION_DDOT":0},{"OBJECT_NAME":"STARLINK-32529","OBJECT_ID":"2024-224A","EPOCH":"2025-09-10T06:18:54.260928","MEAN_MOTION":15.27600505,"ECCENTRICITY":0.0001623,"INCLINATION":43.0003,"RA_OF_ASC_NODE":97.2964,"ARG_OF_PERICENTER":277.5529,"MEAN_ANOMALY":82.5139,"EPHEMERIS_TYPE":0,"CLASSIFICATION_TYPE":"U","NORAD_CAT_ID":62139,"ELEMENT_SET_NO":999,"REV_AT_EPOCH":4482,"BSTAR":0.0013054588,"MEAN_MOTION_DOT":0.00035859,"MEAN_MOTION_DDOT":0},{"OBJECT_NAME":"STARLINK-32464","OBJECT_ID":"2024-224B","EPOCH":"2025-09-10T06:30:00.075744","MEAN_MOTION":15.27597097,"ECCENTRICITY":0.00021948,"INCLINATION":43.002,"RA_OF_ASC_NODE":97.3239,"ARG_OF_PERICENTER":264.917,"MEAN_ANOMALY":95.1431,"EPHEMERIS_TYPE":0,"CLASSIFICATION_TYPE":"U","NORAD_CAT_ID":62140,"ELEMENT_SET_NO":999,"REV_AT_EPOCH":4482,"BSTAR":0.0013398502,"MEAN_MOTION_DOT":0.00036812,"MEAN_MOTION_DDOT":0},{"OBJECT_NAME":"STARLINK-32482","OBJECT_ID":"2024-224C","EPOCH":"2025-09-10T07:08:39.022368","MEAN_MOTION":15.27601363,"ECCENTRICITY":0.00012884,"INCLINATION":43.0027,"RA_OF_ASC_NODE":96.6699,"ARG_OF_PERICENTER":269.6972,"MEAN_ANOMALY":90.3732,"EPHEMERIS_TYPE":0,"CLASSIFICATION_TYPE":"U","NORAD_CAT_ID":62141,"ELEMENT_SET_NO":999,"REV_AT_EPOCH":4473,"BSTAR":0.00077835975,"MEAN_MOTION_DOT":0.00021232,"MEAN_MOTION_DDOT":0},{"OBJECT_NAME":"STARLINK-32454","OBJECT_ID":"2024-224D","EPOCH":"2025-09-09T23:11:09.000096","MEAN_MOTION":15.27603323,"ECCENTRICITY":0.00017238,"INCLINATION":43.0006,"RA_OF_ASC_NODE":106.2651,"ARG_OF_PERICENTER":12.6002,"MEAN_ANOMALY":347.4893,"EPHEMERIS_TYPE":0,"CLASSIFICATION_TYPE":"U","NORAD_CAT_ID":62142,"ELEMENT_SET_NO":999,"REV_AT_EPOCH":4475,"BSTAR":0.00078074615,"MEAN_MOTION_DOT":0.000213,"MEAN_MOTION_DDOT":0},{"OBJECT_NAME":"STARLINK-32485","OBJECT_ID":"2024-224E","EPOCH":"2025-09-08T23:35:34.853856","MEAN_MOTION":15.27602142,"ECCENTRICITY":0.00016432,"INCLINATION":43.0013,"RA_OF_ASC_NODE":107.4635,"ARG_OF_PERICENTER":271.5831,"MEAN_ANOMALY":88.4833,"EPHEMERIS_TYPE":0,"CLASSIFICATION_TYPE":"U","NORAD_CAT_ID":62143,"ELEMENT_SET_NO":999,"REV_AT_EPOCH":4422,"BSTAR":0.00078423052,"MEAN_MOTION_DOT":0.00021396,"MEAN_MOTION_DDOT":0},{"OBJECT_NAME":"STARLINK-32388","OBJECT_ID":"2024-224F","EPOCH":"2025-09-10T06:56:21.898176","MEAN_MOTION":15.27599613,"ECCENTRICITY":0.00019761,"INCLINATION":42.996,"RA_OF_ASC_NODE":104.3906,"ARG_OF_PERICENTER":277.2214,"MEAN_ANOMALY":82.8413,"EPHEMERIS_TYPE":0,"CLASSIFICATION_TYPE":"U","NORAD_CAT_ID":62144,"ELEMENT_SET_NO":999,"REV_AT_EPOCH":4480,"BSTAR":0.00092947475,"MEAN_MOTION_DOT":0.00025419,"MEAN_MOTION_DDOT":0},{"OBJECT_NAME":"STARLINK-32374","OBJECT_ID":"2024-224G","EPOCH":"2025-09-10T06:05:56.892480","MEAN_MOTION":15.27612457,"ECCENTRICITY":0.00023665,"INCLINATION":42.999,"RA_OF_ASC_NODE":97.1988,"ARG_OF_PERICENTER":284.5984,"MEAN_ANOMALY":75.4606,"EPHEMERIS_TYPE":0,"CLASSIFICATION_TYPE":"U","NORAD_CAT_ID":62145,"ELEMENT_SET_NO":999,"REV_AT_EPOCH":4488,"BSTAR":0.00092093344,"MEAN_MOTION_DOT":0.00025193,"MEAN_MOTION_DDOT":0},{"OBJECT_NAME":"STARLINK-32384","OBJECT_ID":"2024-224H","EPOCH":"2025-09-10T06:07:48.388224","MEAN_MOTION":15.27600318,"ECCENTRICITY":6.009e-5,"INCLINATION":43.0017,"RA_OF_ASC_NODE":97.214,"ARG_OF_PERICENTER":265.6921,"MEAN_ANOMALY":94.3862,"EPHEMERIS_TYPE":0,"CLASSIFICATION_TYPE":"U","NORAD_CAT_ID":62146,"ELEMENT_SET_NO":999,"REV_AT_EPOCH":4488,"BSTAR":0.0007701566,"MEAN_MOTION_DOT":0.00021004,"MEAN_MOTION_DDOT":0},{"OBJECT_NAME":"STARLINK-32295","OBJECT_ID":"2024-224J","EPOCH":"2025-09-10T06:22:35.694624","MEAN_MOTION":15.27613432,"ECCENTRICITY":0.00023503,"INCLINATION":42.9967,"RA_OF_ASC_NODE":97.2844,"ARG_OF_PERICENTER":276.3097,"MEAN_ANOMALY":83.7487,"EPHEMERIS_TYPE":0,"CLASSIFICATION_TYPE":"U","NORAD_CAT_ID":62147,"ELEMENT_SET_NO":999,"REV_AT_EPOCH":4477,"BSTAR":0.00098689089,"MEAN_MOTION_DOT":0.00027023,"MEAN_MOTION_DDOT":0},{"OBJECT_NAME":"STARLINK-32479","OBJECT_ID":"2024-224K","EPOCH":"2025-09-09T00:04:03.461376","MEAN_MOTION":15.27571758,"ECCENTRICITY":0.00014069,"INCLINATION":43.0013,"RA_OF_ASC_NODE":104.151,"ARG_OF_PERICENTER":272.6581,"MEAN_ANOMALY":87.411,"EPHEMERIS_TYPE":0,"CLASSIFICATION_TYPE":"U","NORAD_CAT_ID":62148,"ELEMENT_SET_NO":999,"REV_AT_EPOCH":4463,"BSTAR":0.0011483275,"MEAN_MOTION_DOT":0.00031464,"MEAN_MOTION_DDOT":0},{"OBJECT_NAME":"STARLINK-32468","OBJECT_ID":"2024-224L","EPOCH":"2025-09-09T00:02:10.419936","MEAN_MOTION":15.27582302,"ECCENTRICITY":0.00021193,"INCLINATION":43.0014,"RA_OF_ASC_NODE":104.1386,"ARG_OF_PERICENTER":279.9264,"MEAN_ANOMALY":80.1348,"EPHEMERIS_TYPE":0,"CLASSIFICATION_TYPE":"U","NORAD_CAT_ID":62149,"ELEMENT_SET_NO":999,"REV_AT_EPOCH":4453,"BSTAR":0.0010912659,"MEAN_MOTION_DOT":0.00029892,"MEAN_MOTION_DDOT":0},{"OBJECT_NAME":"STARLINK-32629","OBJECT_ID":"2024-224M","EPOCH":"2025-09-10T06:46:27.143040","MEAN_MOTION":15.27597191,"ECCENTRICITY":9.407e-5,"INCLINATION":42.999,"RA_OF_ASC_NODE":96.5548,"ARG_OF_PERICENTER":286.182,"MEAN_ANOMALY":73.8928,"EPHEMERIS_TYPE":0,"CLASSIFICATION_TYPE":"U","NORAD_CAT_ID":62150,"ELEMENT_SET_NO":999,"REV_AT_EPOCH":4489,"BSTAR":0.00082251452,"MEAN_MOTION_DOT":0.00022452,"MEAN_MOTION_DDOT":0},{"OBJECT_NAME":"STARLINK-32644","OBJECT_ID":"2024-224N","EPOCH":"2025-09-10T06:20:44.864160","MEAN_MOTION":15.27600662,"ECCENTRICITY":0.0002218,"INCLINATION":42.9968,"RA_OF_ASC_NODE":97.2723,"ARG_OF_PERICENTER":274.7597,"MEAN_ANOMALY":85.3001,"EPHEMERIS_TYPE":0,"CLASSIFICATION_TYPE":"U","NORAD_CAT_ID":62151,"ELEMENT_SET_NO":999,"REV_AT_EPOCH":4488,"BSTAR":0.00076578836,"MEAN_MOTION_DOT":0.00020884,"MEAN_MOTION_DDOT":0},{"OBJECT_NAME":"STARLINK-32623","OBJECT_ID":"2024-224P","EPOCH":"2025-09-10T07:13:30.427104","MEAN_MOTION":15.27598878,"ECCENTRICITY":0.00016857,"INCLINATION":43.0005,"RA_OF_ASC_NODE":100.1556,"ARG_OF_PERICENTER":273.5578,"MEAN_ANOMALY":86.5081,"EPHEMERIS_TYPE":0,"CLASSIFICATION_TYPE":"U","NORAD_CAT_ID":62152,"ELEMENT_SET_NO":999,"REV_AT_EPOCH":4479,"BSTAR":0.00074220695,"MEAN_MOTION_DOT":0.0002023,"MEAN_MOTION_DDOT":0},{"OBJECT_NAME":"STARLINK-32639","OBJECT_ID":"2024-224Q","EPOCH":"2025-09-10T06:17:02.705568","MEAN_MOTION":15.27606335,"ECCENTRICITY":0.00026483,"INCLINATION":42.9956,"RA_OF_ASC_NODE":97.2529,"ARG_OF_PERICENTER":277.1804,"MEAN_ANOMALY":82.8747,"EPHEMERIS_TYPE":0,"CLASSIFICATION_TYPE":"U","NORAD_CAT_ID":62153,"ELEMENT_SET_NO":999,"REV_AT_EPOCH":4472,"BSTAR":0.00098821967,"MEAN_MOTION_DOT":0.00027055,"MEAN_MOTION_DDOT":0},{"OBJECT_NAME":"STARLINK-32625","OBJECT_ID":"2024-224R","EPOCH":"2025-09-10T06:28:09.527808","MEAN_MOTION":15.2762962,"ECCENTRICITY":0.00017801,"INCLINATION":43.0001,"RA_OF_ASC_NODE":97.3096,"ARG_OF_PERICENTER":269.5645,"MEAN_ANOMALY":90.5003,"EPHEMERIS_TYPE":0,"CLASSIFICATION_TYPE":"U","NORAD_CAT_ID":62154,"ELEMENT_SET_NO":999,"REV_AT_EPOCH":4477,"BSTAR":0.0014804434,"MEAN_MOTION_DOT":0.00040764,"MEAN_MOTION_DDOT":0},{"OBJECT_NAME":"STARLINK-32635","OBJECT_ID":"2024-224S","EPOCH":"2025-09-09T23:16:41.343744","MEAN_MOTION":15.27607802,"ECCENTRICITY":8.581e-5,"INCLINATION":43.0018,"RA_OF_ASC_NODE":106.2887,"ARG_OF_PERICENTER":282.0944,"MEAN_ANOMALY":77.9811,"EPHEMERIS_TYPE":0,"CLASSIFICATION_TYPE":"U","NORAD_CAT_ID":62155,"ELEMENT_SET_NO":999,"REV_AT_EPOCH":4459,"BSTAR":0.0010434121,"MEAN_MOTION_DOT":0.00028586,"MEAN_MOTION_DDOT":0}]
